{"fetched_at":"2026-07-12T17:32:47.614Z","source":"https://celestrak.org/NORAD/elements/gp.php?NAME=HAWK&FORMAT=JSON","constellation":"hawkeye-360","records":[{"OBJECT_NAME":"HAWK-A","OBJECT_ID":"2018-099H","EPOCH":"2026-07-11T22:58:48.914976","CLASSIFICATION_TYPE":"U","MEAN_MOTION":15.24938254,"ECCENTRICITY":0.0034381,"INCLINATION":97.3904,"RA_OF_ASC_NODE":244.8727,"ARG_OF_PERICENTER":195.3513,"MEAN_ANOMALY":164.6685,"EPHEMERIS_TYPE":0,"NORAD_CAT_ID":43765,"ELEMENT_SET_NO":999,"REV_AT_EPOCH":41687,"BSTAR":0.00017430664,"MEAN_MOTION_DOT":0.00004339,"MEAN_MOTION_DDOT":0},{"OBJECT_NAME":"HAWK-B","OBJECT_ID":"2018-099AN","EPOCH":"2026-07-12T01:47:13.087392","CLASSIFICATION_TYPE":"U","MEAN_MOTION":15.23092911,"ECCENTRICITY":0.0031085,"INCLINATION":97.3952,"RA_OF_ASC_NODE":244.3505,"ARG_OF_PERICENTER":213.228,"MEAN_ANOMALY":146.7006,"EPHEMERIS_TYPE":0,"NORAD_CAT_ID":43794,"ELEMENT_SET_NO":999,"REV_AT_EPOCH":41682,"BSTAR":0.00015858392,"MEAN_MOTION_DOT":0.00003716,"MEAN_MOTION_DDOT":0},{"OBJECT_NAME":"HAWK-C","OBJECT_ID":"2018-099AT","EPOCH":"2026-07-12T00:12:15.219936","CLASSIFICATION_TYPE":"U","MEAN_MOTION":15.28458113,"ECCENTRICITY":0.00399793,"INCLINATION":97.3883,"RA_OF_ASC_NODE":245.9582,"ARG_OF_PERICENTER":195.1149,"MEAN_ANOMALY":164.8899,"EPHEMERIS_TYPE":0,"NORAD_CAT_ID":43799,"ELEMENT_SET_NO":999,"REV_AT_EPOCH":41770,"BSTAR":0.00017833679,"MEAN_MOTION_DOT":0.00004979,"MEAN_MOTION_DDOT":0},{"OBJECT_NAME":"HAWK-2C","OBJECT_ID":"2021-006CT","EPOCH":"2026-07-12T04:30:32.130432","CLASSIFICATION_TYPE":"U","MEAN_MOTION":15.34964737,"ECCENTRICITY":0.00086047,"INCLINATION":97.227,"RA_OF_ASC_NODE":237.0013,"ARG_OF_PERICENTER":109.3431,"MEAN_ANOMALY":250.8744,"EPHEMERIS_TYPE":0,"NORAD_CAT_ID":47502,"ELEMENT_SET_NO":999,"REV_AT_EPOCH":30333,"BSTAR":0.00011930126,"MEAN_MOTION_DOT":0.00003972,"MEAN_MOTION_DDOT":0},{"OBJECT_NAME":"HAWK-2A","OBJECT_ID":"2021-006CW","EPOCH":"2026-07-12T04:33:46.832832","CLASSIFICATION_TYPE":"U","MEAN_MOTION":15.34979714,"ECCENTRICITY":0.0008117,"INCLINATION":97.2312,"RA_OF_ASC_NODE":237.6959,"ARG_OF_PERICENTER":112.5807,"MEAN_ANOMALY":247.6296,"EPHEMERIS_TYPE":0,"NORAD_CAT_ID":47505,"ELEMENT_SET_NO":999,"REV_AT_EPOCH":30333,"BSTAR":0.00012009,"MEAN_MOTION_DOT":0.00004,"MEAN_MOTION_DDOT":0},{"OBJECT_NAME":"HAWK-2B","OBJECT_ID":"2021-006CZ","EPOCH":"2026-07-11T17:27:45.553248","CLASSIFICATION_TYPE":"U","MEAN_MOTION":15.35104016,"ECCENTRICITY":0.00086672,"INCLINATION":97.2184,"RA_OF_ASC_NODE":235.5351,"ARG_OF_PERICENTER":112.2337,"MEAN_ANOMALY":247.9827,"EPHEMERIS_TYPE":0,"NORAD_CAT_ID":47508,"ELEMENT_SET_NO":999,"REV_AT_EPOCH":30326,"BSTAR":0.00013734459,"MEAN_MOTION_DOT":0.00004605,"MEAN_MOTION_DDOT":0},{"OBJECT_NAME":"HAWK-3B","OBJECT_ID":"2021-059BE","EPOCH":"2026-07-12T11:45:34.128576","CLASSIFICATION_TYPE":"U","MEAN_MOTION":15.71691393,"ECCENTRICITY":0.0004252,"INCLINATION":97.6639,"RA_OF_ASC_NODE":32.6312,"ARG_OF_PERICENTER":209.0497,"MEAN_ANOMALY":151.053,"EPHEMERIS_TYPE":0,"NORAD_CAT_ID":48931,"ELEMENT_SET_NO":999,"REV_AT_EPOCH":28182,"BSTAR":0.00024953,"MEAN_MOTION_DOT":0.00032072,"MEAN_MOTION_DDOT":0},{"OBJECT_NAME":"HAWK-3C","OBJECT_ID":"2021-059BX","EPOCH":"2026-07-12T13:16:48.152640","CLASSIFICATION_TYPE":"U","MEAN_MOTION":15.71698478,"ECCENTRICITY":0.0004501,"INCLINATION":97.6757,"RA_OF_ASC_NODE":38.43,"ARG_OF_PERICENTER":208.2392,"MEAN_ANOMALY":151.8627,"EPHEMERIS_TYPE":0,"NORAD_CAT_ID":48948,"ELEMENT_SET_NO":999,"REV_AT_EPOCH":28183,"BSTAR":0.00027246,"MEAN_MOTION_DOT":0.00035057,"MEAN_MOTION_DDOT":0},{"OBJECT_NAME":"HAWK-3A","OBJECT_ID":"2021-059CG","EPOCH":"2026-07-12T11:44:57.530400","CLASSIFICATION_TYPE":"U","MEAN_MOTION":15.71694797,"ECCENTRICITY":0.0004423,"INCLINATION":97.6701,"RA_OF_ASC_NODE":35.5442,"ARG_OF_PERICENTER":211.1567,"MEAN_ANOMALY":148.9434,"EPHEMERIS_TYPE":0,"NORAD_CAT_ID":48957,"ELEMENT_SET_NO":999,"REV_AT_EPOCH":28182,"BSTAR":0.00026726,"MEAN_MOTION_DOT":0.00034376,"MEAN_MOTION_DDOT":0},{"OBJECT_NAME":"HAWK-5C","OBJECT_ID":"2022-057Y","EPOCH":"2026-07-12T12:20:53.942208","CLASSIFICATION_TYPE":"U","MEAN_MOTION":15.52262718,"ECCENTRICITY":0.0003083,"INCLINATION":97.6605,"RA_OF_ASC_NODE":354.8352,"ARG_OF_PERICENTER":357.3568,"MEAN_ANOMALY":2.7667,"EPHEMERIS_TYPE":0,"NORAD_CAT_ID":52754,"ELEMENT_SET_NO":999,"REV_AT_EPOCH":23027,"BSTAR":0.00019176,"MEAN_MOTION_DOT":0.00011544,"MEAN_MOTION_DDOT":0},{"OBJECT_NAME":"HAWK-5B","OBJECT_ID":"2022-057AA","EPOCH":"2026-07-12T12:20:37.667040","CLASSIFICATION_TYPE":"U","MEAN_MOTION":15.52260318,"ECCENTRICITY":0.0003728,"INCLINATION":97.662,"RA_OF_ASC_NODE":353.1878,"ARG_OF_PERICENTER":343.4184,"MEAN_ANOMALY":16.6946,"EPHEMERIS_TYPE":0,"NORAD_CAT_ID":52756,"ELEMENT_SET_NO":999,"REV_AT_EPOCH":23027,"BSTAR":0.00018869,"MEAN_MOTION_DOT":0.00011357,"MEAN_MOTION_DDOT":0},{"OBJECT_NAME":"HAWK-5A","OBJECT_ID":"2022-057AB","EPOCH":"2026-07-12T12:20:20.811264","CLASSIFICATION_TYPE":"U","MEAN_MOTION":15.5226114,"ECCENTRICITY":0.0003594,"INCLINATION":97.6614,"RA_OF_ASC_NODE":354.0183,"ARG_OF_PERICENTER":349.1787,"MEAN_ANOMALY":10.9387,"EPHEMERIS_TYPE":0,"NORAD_CAT_ID":52757,"ELEMENT_SET_NO":999,"REV_AT_EPOCH":23027,"BSTAR":0.00019356,"MEAN_MOTION_DOT":0.00011653,"MEAN_MOTION_DDOT":0},{"OBJECT_NAME":"HAWK-6B","OBJECT_ID":"2023-011A","EPOCH":"2026-07-12T11:50:52.794240","CLASSIFICATION_TYPE":"U","MEAN_MOTION":15.23138816,"ECCENTRICITY":0.0003794,"INCLINATION":40.4967,"RA_OF_ASC_NODE":204.4428,"ARG_OF_PERICENTER":226.2355,"MEAN_ANOMALY":133.814,"EPHEMERIS_TYPE":0,"NORAD_CAT_ID":55324,"ELEMENT_SET_NO":999,"REV_AT_EPOCH":19170,"BSTAR":0.00011181,"MEAN_MOTION_DOT":0.000025,"MEAN_MOTION_DDOT":0},{"OBJECT_NAME":"HAWK-6C","OBJECT_ID":"2023-011C","EPOCH":"2026-07-12T10:15:33.617088","CLASSIFICATION_TYPE":"U","MEAN_MOTION":15.23140487,"ECCENTRICITY":0.0004291,"INCLINATION":40.4959,"RA_OF_ASC_NODE":201.6644,"ARG_OF_PERICENTER":217.282,"MEAN_ANOMALY":142.7692,"EPHEMERIS_TYPE":0,"NORAD_CAT_ID":55326,"ELEMENT_SET_NO":999,"REV_AT_EPOCH":19170,"BSTAR":0.00011653,"MEAN_MOTION_DOT":0.00002614,"MEAN_MOTION_DDOT":0},{"OBJECT_NAME":"HAWK-6A","OBJECT_ID":"2023-011D","EPOCH":"2026-07-12T10:15:36.715392","CLASSIFICATION_TYPE":"U","MEAN_MOTION":15.23139285,"ECCENTRICITY":0.0003801,"INCLINATION":40.4967,"RA_OF_ASC_NODE":203.2914,"ARG_OF_PERICENTER":214.8254,"MEAN_ANOMALY":145.2307,"EPHEMERIS_TYPE":0,"NORAD_CAT_ID":55327,"ELEMENT_SET_NO":999,"REV_AT_EPOCH":19170,"BSTAR":0.00011316,"MEAN_MOTION_DOT":0.00002533,"MEAN_MOTION_DDOT":0},{"OBJECT_NAME":"HAWK-7A","OBJECT_ID":"2023-054P","EPOCH":"2026-07-12T06:22:54.192000","CLASSIFICATION_TYPE":"U","MEAN_MOTION":15.27613216,"ECCENTRICITY":0.0001746,"INCLINATION":97.2675,"RA_OF_ASC_NODE":79.966,"ARG_OF_PERICENTER":348.3867,"MEAN_ANOMALY":11.7332,"EPHEMERIS_TYPE":0,"NORAD_CAT_ID":56191,"ELEMENT_SET_NO":999,"REV_AT_EPOCH":18085,"BSTAR":0.00011752,"MEAN_MOTION_DOT":0.000031,"MEAN_MOTION_DDOT":0}]}
